NORAD_CAT_ID,OBJECT_NAME,OBJECT_TYPE,EPOCH,MEAN_MOTION,ECCENTRICITY,INCLINATION,RA_OF_ASC_NODE,ARG_OF_PERICENTER,MEAN_ANOMALY,BSTAR,MEAN_MOTION_DOT,MEAN_MOTION_DDOT,TLE_LINE0,TLE_LINE1,TLE_LINE2,SEMIMAJOR_AXIS,PERIOD,APOGEE,PERIGEE,DECAYED
53035.0,STARLINK-4157,PAYLOAD,2024-02-16 14:15:30,15.08787024,0.0001361,53.2165,210.4052,109.2347,250.8793,0.00073046,0.0001134,0.0,0 STARLINK-4157,1 53035U 22076BB  24047.59410347  .00011340  00000-0  73046-3 0  9995,2 53035  53.2165 210.4052 0001361 109.2347 250.8793 15.08787024 89587,6918.042,95.441,540.849,538.966,0.0
53035.0,STARLINK-4157,PAYLOAD,2024-02-16 17:26:15,15.08841952,0.0001581,53.2167,209.8107,98.5675,261.5496,3.7757e-05,3.13e-06,0.0,0 STARLINK-4157,1 53035U 22076BB  24047.72656851  .00000313  00000-0  37757-4 0  9990,2 53035  53.2167 209.8107 0001581  98.5675 261.5496 15.08841952 90065,6917.874,95.437,540.833,538.646,0.0
53035.0,STARLINK-4157,PAYLOAD,2024-02-16 20:37:01,15.08846827,0.0001531,53.2166,209.2144,99.2659,260.8507,3.2838e-05,2.35e-06,0.0,0 STARLINK-4157,1 53035U 22076BB  24047.85904511  .00000235  00000-0  32838-4 0  9991,2 53035  53.2166 209.2144 0001531  99.2659 260.8507 15.08846827 89625,6917.86,95.437,540.784,538.665,0.0
53035.0,STARLINK-4157,PAYLOAD,2024-02-17 14:06:16,15.08831294,0.0001631,53.2174,205.9395,112.1006,248.016,4.7646e-05,4.7e-06,0.0,0 STARLINK-4157,1 53035U 22076BB  24048.58769523  .00000470  00000-0  47646-4 0  9998,2 53035  53.2174 205.9395 0001631 112.1006 248.0160 15.08831294 89734,6917.907,95.438,540.9,538.644,0.0
53035.0,STARLINK-4157,PAYLOAD,2024-02-17 17:17:03,15.08833473,0.0001356,53.2167,205.351,94.7858,265.3289,5.1752e-05,5.36e-06,0.0,0 STARLINK-4157,1 53035U 22076BB  24048.72017575  .00000536  00000-0  51752-4 0  9993,2 53035  53.2167 205.3510 0001356  94.7858 265.3289 15.08833473 90213,6917.9,95.438,540.703,538.827,0.0
53035.0,STARLINK-4157,PAYLOAD,2024-02-17 20:27:49,15.08837943,0.0001361,53.2166,204.7541,92.075,268.0398,3.0359e-05,1.95e-06,0.0,0 STARLINK-4157,1 53035U 22076BB  24048.85265345  .00000195  00000-0  30359-4 0  9998,2 53035  53.2166 204.7541 0001361  92.0750 268.0398 15.08837943 89773,6917.887,95.438,540.693,538.81,0.0
53035.0,STARLINK-4157,PAYLOAD,2024-02-18 13:57:03,15.08842912,0.0001322,53.216,201.4827,88.8634,271.2509,-5.6422e-06,-3.78e-06,0.0,0 STARLINK-4157,1 53035U 22076BB  24049.58129304 -.00000378  00000-0 -56422-5 0  9998,2 53035  53.2160 201.4827 0001322  88.8634 271.2509 15.08842912 89883,6917.871,95.437,540.651,538.822,0.0
53035.0,STARLINK-4157,PAYLOAD,2024-02-18 17:07:49,15.08846783,0.0001244,53.2167,200.891,93.2561,266.8573,-3.3186e-06,-3.41e-06,0.0,0 STARLINK-4157,1 53035U 22076BB  24049.71377127 -.00000341  00000-0 -33186-5 0  9993,2 53035  53.2167 200.8910 0001244  93.2561 266.8573 15.08846783 90364,6917.86,95.437,540.585,538.864,0.0
53035.0,STARLINK-4157,PAYLOAD,2024-02-18 20:18:35,15.08850827,0.0001275,53.2166,200.294,84.6265,275.4872,4.2895e-05,3.95e-06,0.0,0 STARLINK-4157,1 53035U 22076BB  24049.84624486  .00000395  00000-0  42895-4 0  9993,2 53035  53.2166 200.2940 0001275  84.6265 275.4872 15.08850827 89921,6917.847,95.437,540.594,538.83,0.0
53035.0,STARLINK-4157,PAYLOAD,2024-02-19 02:40:09,15.08835366,0.0001622,53.2169,199.1017,82.1479,277.9697,-5.438e-06,-3.75e-06,0.0,0 STARLINK-4157,1 53035U 22076BB  24050.11121752 -.00000375  00000-0 -54380-5 0  9996,2 53035  53.2169 199.1017 0001622  82.1479 277.9697 15.08835366 90421,6917.895,95.438,540.882,538.637,0.0
53035.0,STARLINK-4157,PAYLOAD,2024-02-19 13:47:50,15.08838907,0.0001101,53.2155,197.0213,82.3615,277.7502,4.8029e-05,4.77e-06,0.0,0 STARLINK-4157,1 53035U 22076BB  24050.57489344  .00000477  00000-0  48029-4 0  9993,2 53035  53.2155 197.0213 0001101  82.3615 277.7502 15.08838907 90031,6917.884,95.438,540.51,538.987,0.0
53035.0,STARLINK-4157,PAYLOAD,2024-02-19 16:58:36,15.08844564,0.0001574,53.2191,196.4301,89.7672,270.35,0.00014438,2.011e-05,0.0,0 STARLINK-4157,1 53035U 22076BB  24050.70736774  .00002011  00000-0  14438-3 0  9992,2 53035  53.2191 196.4301 0001574  89.7672 270.3500 15.08844564 90516,6917.866,95.437,540.82,538.643,0.0
53035.0,STARLINK-4157,PAYLOAD,2024-02-20 13:38:39,15.08825565,0.0001145,53.2176,192.5618,67.3352,292.7761,-0.00017706,-3.103e-05,0.0,0 STARLINK-4157,1 53035U 22076BB  24051.56851094 -.00003103  00000-0 -17706-3 0  9996,2 53035  53.2176 192.5618 0001145  67.3352 292.7761 15.08825565 90188,6917.925,95.438,540.582,538.997,0.0
53035.0,STARLINK-4157,PAYLOAD,2024-02-20 18:24:48,15.08830643,0.0001406,53.2172,191.6692,63.1854,296.9282,-0.00013,-2.356e-05,0.0,0 STARLINK-4157,1 53035U 22076BB  24051.76722828 -.00002356  00000-0 -13000-3 0  9992,2 53035  53.2172 191.6692 0001406  63.1854 296.9282 15.08830643 90678,6917.909,95.438,540.747,538.801,0.0
53035.0,STARLINK-4157,PAYLOAD,2024-02-21 15:04:48,15.08843795,0.0001235,53.2178,187.8071,82.1355,277.9778,6.2713e-05,7.1e-06,0.0,0 STARLINK-4157,1 53035U 22076BB  24052.62833430  .00000710  00000-0  62713-4 0  9996,2 53035  53.2178 187.8071 0001235  82.1355 277.9778 15.08843795 90344,6917.869,95.437,540.588,538.879,0.0
53035.0,STARLINK-4157,PAYLOAD,2024-02-21 16:40:10,15.08854665,0.0001446,53.2179,187.5086,66.7268,293.3876,8.8519e-05,1.122e-05,0.0,0 STARLINK-4157,1 53035U 22076BB  24052.69456778  .00001122  00000-0  88519-4 0  9999,2 53035  53.2179 187.5086 0001446  66.7268 293.3876 15.08854665 90814,6917.836,95.437,540.701,538.7,0.0
53035.0,STARLINK-4157,PAYLOAD,2024-02-22 08:34:03,15.08828521,0.0001664,53.2183,184.5368,66.706,293.4107,0.0001341,1.846e-05,0.0,0 STARLINK-4157,1 53035U 22076BB  24053.35698318  .00001846  00000-0  13410-3 0  9991,2 53035  53.2183 184.5368 0001664  66.7060 293.4107 15.08828521 90912,6917.915,95.438,540.932,538.629,0.0
53035.0,STARLINK-4157,PAYLOAD,2024-02-22 14:55:36,15.08830044,0.0001374,53.2183,183.3463,75.6542,284.4603,0.00015315,2.15e-05,0.0,0 STARLINK-4157,1 53035U 22076BB  24053.62194583  .00002150  00000-0  15315-3 0  9991,2 53035  53.2183 183.3463 0001374  75.6542 284.4603 15.08830044 90494,6917.911,95.438,540.726,538.825,0.0
53035.0,STARLINK-4157,PAYLOAD,2024-02-23 11:35:36,15.08841985,0.0001362,53.2175,179.4799,78.2396,281.8749,-9.7138e-05,-1.834e-05,0.0,0 STARLINK-4157,1 53035U 22076BB  24054.48306603 -.00001834  00000-0 -97138-4 0  9998,2 53035  53.2175 179.4799 0001362  78.2396 281.8749 15.08841985 91080,6917.874,95.437,540.682,538.797,0.0
53035.0,STARLINK-4157,PAYLOAD,2024-02-23 14:46:22,15.08845464,0.000127,53.2166,178.8847,75.0275,285.0857,-6.3118e-05,-1.292e-05,0.0,0 STARLINK-4157,1 53035U 22076BB  24054.61554248 -.00001292  00000-0 -63118-4 0  9992,2 53035  53.2166 178.8847 0001270  75.0275 285.0857 15.08845464 90649,6917.864,95.437,540.607,538.85,0.0
53035.0,STARLINK-4157,PAYLOAD,2024-02-23 17:57:08,15.08848573,0.0001257,53.2165,178.2895,73.639,286.474,-7.3223e-05,-1.453e-05,0.0,0 STARLINK-4157,1 53035U 22076BB  24054.74802048 -.00001453  00000-0 -73223-4 0  9997,2 53035  53.2165 178.2895 0001257  73.6390 286.4740 15.08848573 90664,6917.854,95.437,540.589,538.85,0.0
53035.0,STARLINK-4157,PAYLOAD,2024-02-24 14:37:09,15.08845974,0.0001311,53.2162,174.424,84.1216,275.9926,0.00011937,1.613e-05,0.0,0 STARLINK-4157,1 53035U 22076BB  24055.60913579  .00001613  00000-0  11937-3 0  9994,2 53035  53.2162 174.4240 0001311  84.1216 275.9926 15.08845974 90793,6917.862,95.437,540.634,538.82,0.0
53035.0,STARLINK-4157,PAYLOAD,2024-02-25 12:52:33,15.08843288,0.0001267,53.2171,170.2637,83.0104,277.1032,4.3679e-05,4.07e-06,0.0,0 STARLINK-4157,1 53035U 22076BB  24056.53649989  .00000407  00000-0  43679-4 0  9997,2 53035  53.2171 170.2637 0001267  83.0104 277.1032 15.08843288 91396,6917.87,95.437,540.612,538.859,0.0
53035.0,STARLINK-4157,PAYLOAD,2024-02-26 11:07:58,15.0883198,0.0001747,53.2195,166.1043,114.0599,246.0576,-0.00010237,-1.917e-05,0.0,0 STARLINK-4157,1 53035U 22076BB  24057.46387359 -.00001917  00000-0 -10237-3 0  9992,2 53035  53.2195 166.1043 0001747 114.0599 246.0576 15.08831980 91533,6917.905,95.438,540.978,538.561,0.0
53035.0,STARLINK-4157,PAYLOAD,2024-02-26 14:18:45,15.08829773,0.0001637,53.2191,165.5104,114.0217,246.0947,-8.8482e-05,-1.696e-05,0.0,0 STARLINK-4157,1 53035U 22076BB  24057.59635521 -.00001696  00000-0 -88482-4 0  9995,2 53035  53.2191 165.5104 0001637 114.0217 246.0947 15.08829773 91095,6917.912,95.438,540.909,538.644,0.0
53035.0,STARLINK-4157,PAYLOAD,2024-02-26 15:54:08,15.08834074,0.0001453,53.2189,165.2094,99.4718,260.6439,-8.7741e-05,-1.684e-05,0.0,0 STARLINK-4157,1 53035U 22076BB  24057.66259267 -.00001684  00000-0 -87741-4 0  9996,2 53035  53.2189 165.2094 0001453  99.4718 260.6439 15.08834074 91105,6917.899,95.438,540.769,538.758,0.0
53035.0,STARLINK-4157,PAYLOAD,2024-02-27 10:58:45,15.08843124,0.0001534,53.2188,161.641,115.0203,245.0949,9.7242e-07,-2.73e-06,0.0,0 STARLINK-4157,1 53035U 22076BB  24058.45746623 -.00000273  00000-0  97242-6 0  9992,2 53035  53.2188 161.6410 0001534 115.0203 245.0949 15.08843124 91682,6917.871,95.437,540.797,538.675,0.0
53035.0,STARLINK-4157,PAYLOAD,2024-02-27 14:09:31,15.08848889,0.0001526,53.2182,161.0454,113.6161,246.4992,6.1448e-06,-1.9e-06,0.0,0 STARLINK-4157,1 53035U 22076BB  24058.58994260 -.00000190  00000-0  61448-5 0  9994,2 53035  53.2182 161.0454 0001526 113.6161 246.4992 15.08848889 91244,6917.853,95.437,540.774,538.663,0.0
53035.0,STARLINK-4157,PAYLOAD,2024-02-27 17:20:16,15.08853387,0.0001354,53.217,160.4469,106.8613,253.2528,7.1779e-05,8.55e-06,0.0,0 STARLINK-4157,1 53035U 22076BB  24058.72241687  .00000855  00000-0  71779-4 0  9992,2 53035  53.2170 160.4469 0001354 106.8613 253.2528 15.08853387 91728,6917.839,95.437,540.641,538.768,0.0
53035.0,STARLINK-4157,PAYLOAD,2024-02-27 23:41:50,15.08838834,0.0001533,53.2174,159.2512,80.9024,279.2141,5.9129e-05,6.53e-06,0.0,0 STARLINK-4157,1 53035U 22076BB  24058.98738687  .00000653  00000-0  59129-4 0  9992,2 53035  53.2174 159.2512 0001533  80.9024 279.2141 15.08838834 91767,6917.884,95.438,540.809,538.688,0.0
